{
    "links": {
        "self": "http://www.neowsapp.com/rest/v1/neo/3843409?api_key=iIulBulltgU6a56xZRHN4H3l9WmuAYTsLGpBGhQ2"
    },
    "id": "3843409",
    "neo_reference_id": "3843409",
    "name": "(2019 ON3)",
    "designation": "2019 ON3",
    "nasa_jpl_url": "http://ssd.jpl.nasa.gov/sbdb.cgi?sstr=3843409",
    "absolute_magnitude_h": 27.8,
    "estimated_diameter": {
        "kilometers": {
            "estimated_diameter_min": 0.0073207399,
            "estimated_diameter_max": 0.016369672
        },
        "meters": {
            "estimated_diameter_min": 7.3207398935,
            "estimated_diameter_max": 16.3696720474
        },
        "miles": {
            "estimated_diameter_min": 0.0045488955,
            "estimated_diameter_max": 0.0101716395
        },
        "feet": {
            "estimated_diameter_min": 24.0181762721,
            "estimated_diameter_max": 53.70627484
        }
    },
    "is_potentially_hazardous_asteroid": false,
    "close_approach_data": [
        {
            "close_approach_date": "2019-07-28",
            "close_approach_date_full": "2019-Jul-28 21:42",
            "epoch_date_close_approach": 1564350120000,
            "relative_velocity": {
                "kilometers_per_second": "14.9581126186",
                "kilometers_per_hour": "53849.2054270345",
                "miles_per_hour": "33459.8021165926"
            },
            "miss_distance": {
                "astronomical": "0.0008154649",
                "lunar": "0.3172158461",
                "kilometers": "121991.812099763",
                "miles": "75802.1970442094"
            },
            "orbiting_body": "Moon"
        },
        {
            "close_approach_date": "2019-07-29",
            "close_approach_date_full": "2019-Jul-29 01:19",
            "epoch_date_close_approach": 1564363140000,
            "relative_velocity": {
                "kilometers_per_second": "14.1635616847",
                "kilometers_per_hour": "50988.822064951",
                "miles_per_hour": "31682.4711325247"
            },
            "miss_distance": {
                "astronomical": "0.0014261866",
                "lunar": "0.5547865874",
                "kilometers": "213354.477582542",
                "miles": "132572.3249093996"
            },
            "orbiting_body": "Earth"
        }
    ],
    "orbital_data": {
        "orbit_id": "1",
        "orbit_determination_date": "2019-07-30 20:42:03",
        "first_observation_date": "2019-07-30",
        "last_observation_date": "2019-07-30",
        "data_arc_in_days": null,
        "observations_used": 18,
        "orbit_uncertainty": "8",
        "minimum_orbit_intersection": ".000535247",
        "jupiter_tisserand_invariant": "3.868",
        "epoch_osculation": "2458695.5",
        "eccentricity": ".5469126135606081",
        "semi_major_axis": "1.801424134342025",
        "inclination": "6.335032977640033",
        "ascending_node_longitude": "305.2403702406407",
        "orbital_period": "883.1254330313441",
        "perihelion_distance": ".8162025528978722",
        "perihelion_argument": "296.7279552637875",
        "aphelion_distance": "2.786645715786178",
        "perihelion_time": "2458648.994537279429",
        "mean_anomaly": "18.95763155856406",
        "mean_motion": ".4076431122182649",
        "equinox": "J2000",
        "orbit_class": {
            "orbit_class_type": "APO",
            "orbit_class_description": "Near-Earth asteroid orbits which cross the Earth’s orbit similar to that of 1862 Apollo",
            "orbit_class_range": "a (semi-major axis) > 1.0 AU; q (perihelion) < 1.017 AU"
        }
    },
    "is_sentry_object": false
}